Zip,Latitude,Longitude,City,State,County,Country
2215,42.347593,-71.102934,Boston,MA,Suffolk County,US
2120,42.332484,-71.096416,Boston,MA,Suffolk County,US
2886,41.70247,-71.47902,Warwick,RI,Kent County,US
2021,42.179146,-71.121185,Canton,MA,Norfolk County,US
2445,42.325483,-71.135045,Brookline,MA,Norfolk County,US
2170,42.267248,-71.016742,Quincy,MA,Norfolk County,US
2122,42.29658,-71.055215,Boston,MA,Suffolk County,US
2151,42.40843,-71.01199,Revere,MA,Suffolk County,US
2130,42.309661,-71.121097,Jamaica Plain,MA,Suffolk County,US
2134,42.35843,-71.12589,Allston,MA,Suffolk County,US
2472,42.369451,-71.177925,Watertown,MA,Middlesex County,US
2151,42.40843,-71.01199,Revere,MA,Suffolk County,US
2451,42.398588,-71.24505,Waltham,MA,Middlesex County,US
2135,42.3501,-71.15644,Brighton,MA,Suffolk County,US
2135,42.3501,-71.15644,Brighton,MA,Suffolk County,US
2382,42.0785,-70.940837,Whitman,MA,Plymouth County,US
2134,42.35843,-71.12589,Allston,MA,Suffolk County,US
2144,42.399655,-71.12255,Somerville,MA,Middlesex County,US
2360,41.886207,-70.638717,Plymouth,MA,Plymouth County,US
3868,43.324241,-70.940177,Rochester,NH,Strafford County,US
2072,42.118416,-71.105733,Stoughton,MA,Norfolk County,US
2123,42.338947,-70.919635,Boston,MA,Suffolk County,US
2111,42.351047,-71.059365,Boston,MA,Suffolk County,US
2121,42.307098,-71.081645,Boston,MA,Suffolk County,US
2128,42.364197,-71.025694,Boston,MA,Suffolk County,US
2121,42.307098,-71.081645,Boston,MA,Suffolk County,US
2148,42.436545,-71.085396,Malden,MA,Middlesex County,US
2141,42.368673,-71.083596,Cambridge,MA,Middlesex County,US
2124,42.286784,-71.071045,Boston,MA,Suffolk County,US
1545,42.286992,-71.715313,Shrewsbury,MA,Worcester County,US
2461,42.317362,-71.206508,Newton Highlands,MA,Middlesex County,US
2111,42.351047,-71.059365,Boston,MA,Suffolk County,US
2215,42.347593,-71.102934,Boston,MA,Suffolk County,US
1033,42.262285,-72.504086,Granby,MA,Hampshire County,US
2215,42.347593,-71.102934,Boston,MA,Suffolk County,US
2135,42.3501,-71.15644,Brighton,MA,Suffolk County,US
2135,42.3501,-71.15644,Brighton,MA,Suffolk County,US
1720,42.48509,-71.43284,Acton,MA,Middlesex County,US
2148,42.436545,-71.085396,Malden,MA,Middlesex County,US
2302,42.08475,-71.000189,Brockton,MA,Plymouth County,US
1720,42.48509,-71.43284,Acton,MA,Middlesex County,US
3862,42.97259,-70.82978,North Hampton,NH,Rockingham County,US
47202,39.192972,-85.885168,Columbus,IN,Bartholomew County,US
6511,41.310547,-72.926046,New Haven,CT,New Haven County,US
2120,42.332484,-71.096416,Boston,MA,Suffolk County,US
2903,41.819459,-71.4115,Providence,RI,Providence County,US
6118,41.748999,-72.609884,East Hartford,CT,Hartford County,US
2119,42.323077,-71.084608,Boston,MA,Suffolk County,US
2110,42.361962,-71.047847,Boston,MA,Suffolk County,US
2421,42.442567,-71.226453,Lexington,MA,Middlesex County,US
2125,42.31476,-71.067244,Boston,MA,Suffolk County,US
2144,42.399655,-71.12255,Somerville,MA,Middlesex County,US
96749,19.581873,-155.032104,Keaau,HI,Hawaii County,US
2111,42.351047,-71.059365,Boston,MA,Suffolk County,US
2421,42.442567,-71.226453,Lexington,MA,Middlesex County,US
3054,42.86509,-71.4934,Merrimack,NH,Hillsborough County,US
2124,42.286784,-71.071045,Boston,MA,Suffolk County,US
2148,42.436545,-71.085396,Malden,MA,Middlesex County,US
2131,42.284197,-71.120896,Roslindale,MA,Suffolk County,US
2668,41.70566,-70.37447,West Barnstable,MA,Barnstable County,US
2472,42.369451,-71.177925,Watertown,MA,Middlesex County,US
2148,42.436545,-71.085396,Malden,MA,Middlesex County,US
2115,42.336342,-71.104176,Boston,MA,Suffolk County,US
2148,42.436545,-71.085396,Malden,MA,Middlesex County,US
2155,42.422095,-71.109297,Medford,MA,Middlesex County,US
2460,42.351824,-71.20849,Newtonville,MA,Middlesex County,US
2148,42.436545,-71.085396,Malden,MA,Middlesex County,US
2139,42.365146,-71.101842,Cambridge,MA,Middlesex County,US
54915,44.243138,-88.356058,Appleton,WI,Outagamie County,US
2148,42.436545,-71.085396,Malden,MA,Middlesex County,US
2139,42.365146,-71.101842,Cambridge,MA,Middlesex County,US
2128,42.364197,-71.025694,Boston,MA,Suffolk County,US
1760,42.28343,-71.3495,Natick,MA,Middlesex County,US
2114,42.363175,-71.068646,Boston,MA,Suffolk County,US
2145,42.391046,-71.095146,Somerville,MA,Middlesex County,US
1801,42.488595,-71.157271,Woburn,MA,Middlesex County,US
2186,42.240598,-71.078494,Milton,MA,Norfolk County,US
2136,42.254248,-71.129321,Hyde Park,MA,Suffolk County,US
1760,42.28343,-71.3495,Natick,MA,Middlesex County,US
2188,42.20794,-70.95514,Weymouth,MA,Norfolk County,US
2492,42.279797,-71.25006,Needham,MA,Norfolk County,US
2459,42.334146,-71.183298,Newton Center,MA,Middlesex County,US
